NORAD_CAT_ID,OBJECT_NAME,OBJECT_TYPE,EPOCH,MEAN_MOTION,ECCENTRICITY,INCLINATION,RA_OF_ASC_NODE,ARG_OF_PERICENTER,MEAN_ANOMALY,BSTAR,MEAN_MOTION_DOT,MEAN_MOTION_DDOT,TLE_LINE0,TLE_LINE1,TLE_LINE2,SEMIMAJOR_AXIS,PERIOD,APOGEE,PERIGEE,DECAYED
51465.0,STARLINK-3401,PAYLOAD,2024-03-28 03:18:49,15.08848925,0.0001509,53.218,233.3996,89.6302,270.4863,0.0001118,1.492e-05,0.0,0 STARLINK-3401,1 51465U 22010K   24088.13807199  .00001492  00000-0  11180-3 0  9996,2 51465  53.2180 233.3996 0001509  89.6302 270.4863 15.08848925119900,6917.853,95.437,540.762,538.674,0.0
51465.0,STARLINK-3401,PAYLOAD,2024-03-28 12:51:09,15.0883277,0.0001562,53.2179,231.6138,97.9658,262.1511,0.00012456,1.695e-05,0.0,0 STARLINK-3401,1 51465U 22010K   24088.53552441  .00001695  00000-0  12456-3 0  9999,2 51465  53.2179 231.6138 0001562  97.9658 262.1511 15.08832770119967,6917.902,95.438,540.848,538.687,0.0
51465.0,STARLINK-3401,PAYLOAD,2024-03-29 12:41:56,15.08839163,0.0001949,53.2161,227.1516,104.5019,255.619,6.8731e-05,8.06e-06,0.0,0 STARLINK-3401,1 51465U 22010K   24089.52912509  .00000806  00000-0  68731-4 0  9995,2 51465  53.2161 227.1516 0001949 104.5019 255.6190 15.08839163120115,6917.883,95.438,541.096,538.4,0.0
51465.0,STARLINK-3401,PAYLOAD,2024-03-29 15:52:42,15.08835298,0.0001532,53.2177,226.5598,93.2249,266.8919,0.0001428,1.985e-05,0.0,0 STARLINK-3401,1 51465U 22010K   24089.66160654  .00001985  00000-0  14280-3 0  9994,2 51465  53.2177 226.5598 0001532  93.2249 266.8919 15.08835298120132,6917.895,95.438,540.82,538.7,0.0
51465.0,STARLINK-3401,PAYLOAD,2024-03-30 12:32:41,15.08906316,0.0001817,53.2188,222.6944,79.8866,280.2331,-0.00097036,-0.00015726,0.0,0 STARLINK-3401,1 51465U 22010K   24090.52270200 -.00015726  00000-0 -97036-3 0  9990,2 51465  53.2188 222.6944 0001817  79.8866 280.2331 15.08906316120269,6917.678,95.433,540.8,538.286,0.0
51465.0,STARLINK-3401,PAYLOAD,2024-03-30 14:08:06,15.08834605,0.000151,53.2188,222.3977,97.431,262.6854,8.6349e-05,1.086e-05,0.0,0 STARLINK-3401,1 51465U 22010K   24090.58896808  .00001086  00000-0  86349-4 0  9992,2 51465  53.2188 222.3977 0001510  97.4310 262.6854 15.08834605120278,6917.897,95.438,540.806,538.717,0.0
51465.0,STARLINK-3401,PAYLOAD,2024-03-30 15:43:30,15.08834253,0.0001334,53.2179,222.1031,89.7378,270.3767,0.0001086,1.441e-05,0.0,0 STARLINK-3401,1 51465U 22010K   24090.65520886  .00001441  00000-0  10860-3 0  9999,2 51465  53.2179 222.1031 0001334  89.7378 270.3767 15.08834253120288,6917.898,95.438,540.686,538.84,0.0
51465.0,STARLINK-3401,PAYLOAD,2024-03-31 01:15:47,15.08847625,0.0001307,53.219,220.3144,84.6589,275.4553,0.00017388,2.481e-05,0.0,0 STARLINK-3401,1 51465U 22010K   24091.05263745  .00002481  00000-0  17388-3 0  9999,2 51465  53.2190 220.3144 0001307  84.6589 275.4553 15.08847625120347,6917.857,95.437,540.626,538.818,0.0
51465.0,STARLINK-3401,PAYLOAD,2024-03-31 12:23:30,15.0883568,0.0001623,53.2204,218.2363,102.6524,257.465,6.1892e-05,6.97e-06,0.0,0 STARLINK-3401,1 51465U 22010K   24091.51632779  .00000697  00000-0  61892-4 0  9994,2 51465  53.2204 218.2363 0001623 102.6524 257.4650 15.08835680120417,6917.894,95.438,540.881,538.636,0.0
51465.0,STARLINK-3401,PAYLOAD,2024-03-31 13:58:53,15.08834727,0.0001612,53.2198,217.9393,103.2362,256.881,7.8546e-05,9.62e-06,0.0,0 STARLINK-3401,1 51465U 22010K   24091.58256792  .00000962  00000-0  78546-4 0  9997,2 51465  53.2198 217.9393 0001612 103.2362 256.8810 15.08834727120426,6917.897,95.438,540.877,538.646,0.0
51465.0,STARLINK-3401,PAYLOAD,2024-03-31 15:34:16,15.08837528,0.0001443,53.2188,217.6424,99.238,260.8776,8.5778e-05,1.077e-05,0.0,0 STARLINK-3401,1 51465U 22010K   24091.64880596  .00001077  00000-0  85778-4 0  9992,2 51465  53.2188 217.6424 0001443  99.2380 260.8776 15.08837528120432,6917.888,95.438,540.751,538.755,0.0
51465.0,STARLINK-3401,PAYLOAD,2024-04-01 01:06:35,15.08844473,0.0001517,53.2195,215.8581,98.7567,261.3597,0.00010108,1.321e-05,0.0,0 STARLINK-3401,1 51465U 22010K   24092.04624085  .00001321  00000-0  10108-3 0  9992,2 51465  53.2195 215.8581 0001517  98.7567 261.3597 15.08844473120497,6917.867,95.437,540.781,538.682,0.0
51465.0,STARLINK-3401,PAYLOAD,2024-04-01 12:14:18,15.08829925,0.0001912,53.218,213.7741,87.7798,272.3413,-2.1712e-06,-3.23e-06,0.0,0 STARLINK-3401,1 51465U 22010K   24092.50993594 -.00000323  00000-0 -21712-5 0  9995,2 51465  53.2180 213.7741 0001912  87.7798 272.3413 15.08829925120561,6917.911,95.438,541.099,538.453,0.0
51465.0,STARLINK-3401,PAYLOAD,2024-04-02 12:05:06,15.08822291,0.000183,53.2183,209.3128,87.0658,273.0544,-4.2357e-05,-9.62e-06,0.0,0 STARLINK-3401,1 51465U 22010K   24093.50354826 -.00000962  00000-0 -42357-4 0  9991,2 51465  53.2183 209.3128 0001830  87.0658 273.0544 15.08822291120710,6917.935,95.439,541.066,538.534,0.0
51465.0,STARLINK-3401,PAYLOAD,2024-04-02 13:40:29,15.08825728,0.0001389,53.2188,209.0149,90.2839,269.8313,-0.00010765,-2e-05,0.0,0 STARLINK-3401,1 51465U 22010K   24093.56978777 -.00002000  00000-0 -10765-3 0  9996,2 51465  53.2188 209.0149 0001389  90.2839 269.8313 15.08825728120727,6917.924,95.438,540.75,538.828,0.0
51465.0,STARLINK-3401,PAYLOAD,2024-04-02 15:15:52,15.08826103,0.0001256,53.2179,208.718,77.4518,282.6614,-8.8676e-05,-1.698e-05,0.0,0 STARLINK-3401,1 51465U 22010K   24093.63602778 -.00001698  00000-0 -88676-4 0  9998,2 51465  53.2179 208.7180 0001256  77.4518 282.6614 15.08826103120738,6917.923,95.438,540.657,538.919,0.0
51465.0,STARLINK-3401,PAYLOAD,2024-04-03 00:48:11,15.08832447,0.0001164,53.218,206.9335,82.3383,277.7741,-3.71e-05,-8.78e-06,0.0,0 STARLINK-3401,1 51465U 22010K   24094.03346445 -.00000878  00000-0 -37100-4 0  9994,2 51465  53.2180 206.9335 0001164  82.3383 277.7741 15.08832447120795,6917.903,95.438,540.574,538.963,0.0
51465.0,STARLINK-3401,PAYLOAD,2024-04-03 13:31:15,15.0883691,0.0001268,53.217,204.5555,85.4607,274.653,0.00019521,2.82e-05,0.0,0 STARLINK-3401,1 51465U 22010K   24094.56337820  .00002820  00000-0  19521-3 0  9992,2 51465  53.2170 204.5555 0001268  85.4607 274.6530 15.08836910120870,6917.89,95.438,540.632,538.878,0.0
51465.0,STARLINK-3401,PAYLOAD,2024-04-03 16:42:01,15.08845891,0.0001207,53.2176,203.96,82.7457,277.3673,0.00019806,2.866e-05,0.0,0 STARLINK-3401,1 51465U 22010K   24094.69585292  .00002866  00000-0  19806-3 0  9990,2 51465  53.2176 203.9600 0001207  82.7457 277.3673 15.08845891120894,6917.862,95.437,540.562,538.892,0.0
51465.0,STARLINK-3401,PAYLOAD,2024-04-04 00:38:56,15.08863421,0.0001224,53.2179,202.4745,76.6964,283.4165,5.5918e-05,6.03e-06,0.0,0 STARLINK-3401,1 51465U 22010K   24095.02704367  .00000603  00000-0  55918-4 0  9996,2 51465  53.2179 202.4745 0001224  76.6964 283.4165 15.08863421120944,6917.809,95.436,540.521,538.827,0.0
51465.0,STARLINK-3401,PAYLOAD,2024-04-04 13:22:02,15.08840628,0.0001492,53.2182,200.0936,88.7226,271.3937,0.00021392,3.118e-05,0.0,0 STARLINK-3401,1 51465U 22010K   24095.55697609  .00003118  00000-0  21392-3 0  9996,2 51465  53.2182 200.0936 0001492  88.7226 271.3937 15.08840628121023,6917.878,95.438,540.776,538.711,0.0
51465.0,STARLINK-3401,PAYLOAD,2024-04-05 13:12:49,15.08847886,0.0001494,53.2194,195.6345,95.0098,265.1065,-3.6996e-05,-8.77e-06,0.0,0 STARLINK-3401,1 51465U 22010K   24096.55057470 -.00000877  00000-0 -36996-4 0  9991,2 51465  53.2194 195.6345 0001494  95.0098 265.1065 15.08847886121171,6917.856,95.437,540.755,538.688,0.0
51465.0,STARLINK-3401,PAYLOAD,2024-04-05 16:23:35,15.08851453,0.0001355,53.2183,195.0389,97.8776,262.237,-1.2826e-05,-4.92e-06,0.0,0 STARLINK-3401,1 51465U 22010K   24096.68305015 -.00000492  00000-0 -12826-4 0  9995,2 51465  53.2183 195.0389 0001355  97.8776 262.2370 15.08851453121194,6917.845,95.437,540.648,538.773,0.0
51465.0,STARLINK-3401,PAYLOAD,2024-04-06 13:03:36,15.08841165,0.0001241,53.2175,191.1746,90.1869,269.9265,4.0716e-05,3.6e-06,0.0,0 STARLINK-3401,1 51465U 22010K   24097.54417168  .00000360  00000-0  40716-4 0  9995,2 51465  53.2175 191.1746 0001241  90.1869 269.9265 15.08841165121323,6917.877,95.437,540.6,538.883,0.0
51465.0,STARLINK-3401,PAYLOAD,2024-04-07 09:43:35,15.08907398,0.0001784,53.217,187.3065,78.2658,281.8534,-0.0010927,-0.00017669,0.0,0 STARLINK-3401,1 51465U 22010K   24098.40527677 -.00017669  00000-0 -10927-2 0  9999,2 51465  53.2170 187.3065 0001784  78.2658 281.8534 15.08907398121451,6917.674,95.433,540.774,538.305,0.0
51465.0,STARLINK-3401,PAYLOAD,2024-04-07 12:54:24,15.08830393,0.0001287,53.2167,186.7117,93.9458,266.1681,1.2075e-05,-9.6e-07,0.0,0 STARLINK-3401,1 51465U 22010K   24098.53778046 -.00000096  00000-0  12075-4 0  9994,2 51465  53.2167 186.7117 0001287  93.9458 266.1681 15.08830393121479,6917.91,95.438,540.665,538.884,0.0
51465.0,STARLINK-3401,PAYLOAD,2024-04-07 22:26:42,15.08840818,0.0001332,53.219,184.9286,93.8335,266.2809,-4.0018e-05,-9.25e-06,0.0,0 STARLINK-3401,1 51465U 22010K   24098.93521578 -.00000925  00000-0 -40018-4 0  9994,2 51465  53.2190 184.9286 0001332  93.8335 266.2809 15.08840818121539,6917.878,95.438,540.664,538.821,0.0
51465.0,STARLINK-3401,PAYLOAD,2024-04-08 14:20:33,15.0884196,0.00014,53.2192,181.9584,101.3471,258.7678,9.837e-05,1.278e-05,0.0,0 STARLINK-3401,1 51465U 22010K   24099.59761323  .00001278  00000-0  98370-4 0  9995,2 51465  53.2192 181.9584 0001400 101.3471 258.7678 15.08841960121631,6917.874,95.437,540.708,538.771,0.0
51465.0,STARLINK-3401,PAYLOAD,2024-04-08 22:17:28,15.08848702,0.0001332,53.2205,180.4718,94.8419,265.2725,0.00021307,3.106e-05,0.0,0 STARLINK-3401,1 51465U 22010K   24099.92880590  .00003106  00000-0  21307-3 0  9997,2 51465  53.2205 180.4718 0001332  94.8419 265.2725 15.08848702121683,6917.854,95.437,540.64,538.797,0.0
51465.0,STARLINK-3401,PAYLOAD,2024-04-09 09:25:12,15.08832168,0.0001748,53.2191,178.3905,95.4416,264.6775,9.9188e-05,1.291e-05,0.0,0 STARLINK-3401,1 51465U 22010K   24100.39250097  .00001291  00000-0  99188-4 0  9990,2 51465  53.2191 178.3905 0001748  95.4416 264.6775 15.08832168121751,6917.904,95.438,540.979,538.56,0.0
